NORAD_CAT_ID,OBJECT_NAME,OBJECT_TYPE,EPOCH,MEAN_MOTION,ECCENTRICITY,INCLINATION,RA_OF_ASC_NODE,ARG_OF_PERICENTER,MEAN_ANOMALY,BSTAR,MEAN_MOTION_DOT,MEAN_MOTION_DDOT,TLE_LINE0,TLE_LINE1,TLE_LINE2,SEMIMAJOR_AXIS,PERIOD,APOGEE,PERIGEE,DECAYED
55408.0,STARLINK-5092,PAYLOAD,2024-08-11 21:38:27,14.98313091,0.0002705,70.0006,73.868,260.6412,99.4441,-0.00021228,-2.624e-05,0.0,0 STARLINK-5092,1 55408U 23014T   24224.90170907 -.00002624  00000-0 -21228-3 0  9993,2 55408  70.0006  73.8680 0002705 260.6412  99.4441 14.98313091 85951,6950.245,96.108,573.99,570.23,0.0
55408.0,STARLINK-5092,PAYLOAD,2024-08-12 07:15:15,14.98324888,0.0003177,69.9992,72.857,265.8305,94.2491,-0.00018054,-2.246e-05,0.0,0 STARLINK-5092,1 55408U 23014T   24225.30226100 -.00002246  00000-0 -18054-3 0  9998,2 55408  69.9992  72.8570 0003177 265.8305  94.2491 14.98324888 85078,6950.209,96.107,574.282,569.866,0.0
55408.0,STARLINK-5092,PAYLOAD,2024-08-12 13:39:47,14.98327507,0.0003217,69.999,72.1835,267.9197,92.1593,-6.8141e-05,-9.06e-06,0.0,0 STARLINK-5092,1 55408U 23014T   24225.56929923 -.00000906  00000-0 -68141-4 0  9993,2 55408  69.9990  72.1835 0003217 267.9197  92.1593 14.98327507 86050,6950.201,96.107,574.301,569.83,0.0
55408.0,STARLINK-5092,PAYLOAD,2024-08-12 20:04:18,14.98339824,0.0003069,69.999,71.5111,265.0625,95.0184,7.1283e-05,7.58e-06,0.0,0 STARLINK-5092,1 55408U 23014T   24225.83632808  .00000758  00000-0  71283-4 0  9990,2 55408  69.9990  71.5111 0003069 265.0625  95.0184 14.98339824 85153,6950.163,96.106,574.161,569.895,0.0
55408.0,STARLINK-5092,PAYLOAD,2024-08-12 21:40:26,14.98341479,0.0003077,69.9988,71.3428,265.2886,94.7922,8.7001e-05,9.45e-06,0.0,0 STARLINK-5092,1 55408U 23014T   24225.90308670  .00000945  00000-0  87001-4 0  9998,2 55408  69.9988  71.3428 0003077 265.2886  94.7922 14.98341479 86100,6950.157,96.106,574.161,569.884,0.0
55408.0,STARLINK-5092,PAYLOAD,2024-08-13 07:17:16,14.98321764,0.0002064,70.0014,70.3311,277.3658,82.7266,-0.00013256,-1.674e-05,0.0,0 STARLINK-5092,1 55408U 23014T   24226.30366707 -.00001674  00000-0 -13256-3 0  9990,2 55408  70.0014  70.3311 0002064 277.3658  82.7266 14.98321764 85224,6950.218,96.108,573.518,570.649,0.0
55408.0,STARLINK-5092,PAYLOAD,2024-08-13 20:06:23,14.9828226,0.0003062,69.999,68.986,272.1754,87.9055,-0.0001094,-1.396e-05,0.0,0 STARLINK-5092,1 55408U 23014T   24226.83777558 -.00001396  00000-0 -10940-3 0  9996,2 55408  69.9990  68.9860 0003062 272.1754  87.9055 14.98282260 85304,6950.341,96.11,574.334,570.077,0.0
55408.0,STARLINK-5092,PAYLOAD,2024-08-13 21:42:31,14.98284928,0.0003049,70.0004,68.8177,273.2888,86.7922,-0.0002801,-3.43e-05,0.0,0 STARLINK-5092,1 55408U 23014T   24226.90452831 -.00003430  00000-0 -28010-3 0  9996,2 55408  70.0004  68.8177 0003049 273.2888  86.7922 14.98284928 86256,6950.332,96.11,574.316,570.078,0.0
55408.0,STARLINK-5092,PAYLOAD,2024-08-13 23:18:39,14.98286474,0.0003054,70.0005,68.6494,273.2225,86.8585,-0.00023405,-2.881e-05,0.0,0 STARLINK-5092,1 55408U 23014T   24226.97128965 -.00002881  00000-0 -23405-3 0  9993,2 55408  70.0005  68.6494 0003054 273.2225  86.8585 14.98286474 85329,6950.327,96.11,574.315,570.07,0.0
55408.0,STARLINK-5092,PAYLOAD,2024-08-14 12:07:43,14.9830863,0.000346,70.0033,67.3002,265.8151,94.2613,0.00026196,3.032e-05,0.0,0 STARLINK-5092,1 55408U 23014T   24227.50536740  .00003032  00000-0  26196-3 0  9994,2 55408  70.0033  67.3002 0003460 265.8151  94.2613 14.98308630 85400,6950.259,96.108,574.529,569.719,0.0
55408.0,STARLINK-5092,PAYLOAD,2024-08-14 13:43:51,14.9831498,0.0003384,69.9974,67.1352,279.168,80.9096,0.00041821,4.899e-05,0.0,0 STARLINK-5092,1 55408U 23014T   24227.57212599  .00004899  00000-0  41821-3 0  9998,2 55408  69.9974  67.1352 0003384 279.1680  80.9096 14.98314980 86354,6950.239,96.108,574.456,569.752,0.0
55408.0,STARLINK-5092,PAYLOAD,2024-08-14 20:08:24,14.98333373,0.0003775,70.0013,66.4609,280.4693,79.6041,0.0018775,0.00022384,0.0,0 STARLINK-5092,1 55408U 23014T   24227.83916788  .00022384  00000-0  18775-2 0  9998,2 55408  70.0013  66.4609 0003775 280.4693  79.6041 14.98333373 85453,6950.182,96.107,574.671,569.424,0.0
55408.0,STARLINK-5092,PAYLOAD,2024-08-14 21:44:32,14.9834128,0.0003407,70.0014,66.2924,278.7122,81.3651,0.0016537,0.000197,0.0,0 STARLINK-5092,1 55408U 23014T   24227.90592693  .00019700  00000-0  16537-2 0  9993,2 55408  70.0014  66.2924 0003407 278.7122  81.3651 14.98341280 86400,6950.158,96.106,574.391,569.655,0.0
55408.0,STARLINK-5092,PAYLOAD,2024-08-14 23:20:40,14.98346119,0.0003474,70.0013,66.1238,280.8444,79.2324,0.001467,0.00017462,0.0,0 STARLINK-5092,1 55408U 23014T   24227.97268584  .00017462  00000-0  14670-2 0  9998,2 55408  70.0013  66.1238 0003474 280.8444  79.2324 14.98346119 86411,6950.143,96.106,574.423,569.594,0.0
55408.0,STARLINK-5092,PAYLOAD,2024-08-15 20:10:23,14.98360819,0.0003346,70.0015,63.9354,282.7031,77.3754,0.0011329,0.00013462,0.0,0 STARLINK-5092,1 55408U 23014T   24228.84055434  .00013462  00000-0  11329-2 0  9997,2 55408  70.0015  63.9354 0003346 282.7031  77.3754 14.98360819 85607,6950.098,96.105,574.288,569.637,0.0
55408.0,STARLINK-5092,PAYLOAD,2024-08-15 21:46:31,14.98361691,0.0003371,70.0014,63.7675,281.2919,78.7861,0.00093437,0.00011083,0.0,0 STARLINK-5092,1 55408U 23014T   24228.90731297  .00011083  00000-0  93437-3 0  9990,2 55408  70.0014  63.7675 0003371 281.2919  78.7861 14.98361691 86555,6950.095,96.105,574.303,569.617,0.0
55408.0,STARLINK-5092,PAYLOAD,2024-08-16 05:47:11,14.98359479,0.0003379,70.0012,62.9256,281.3013,78.7766,0.00063986,7.556e-05,0.0,0 STARLINK-5092,1 55408U 23014T   24229.24110794  .00007556  00000-0  63986-3 0  9997,2 55408  70.0012  62.9256 0003379 281.3013  78.7766 14.98359479 85669,6950.102,96.105,574.315,569.618,0.0
55408.0,STARLINK-5092,PAYLOAD,2024-08-16 21:48:31,14.98354337,0.0002856,70.0017,61.244,278.0496,82.0339,0.00048354,5.685e-05,0.0,0 STARLINK-5092,1 55408U 23014T   24229.90870115  .00005685  00000-0  48354-3 0  9993,2 55408  70.0017  61.2440 0002856 278.0496  82.0339 14.98354337 86706,6950.118,96.105,573.968,569.998,0.0
55408.0,STARLINK-5092,PAYLOAD,2024-08-16 23:24:39,14.9835443,0.0003235,70.0013,61.0744,280.7125,79.3669,0.00025529,2.956e-05,0.0,0 STARLINK-5092,1 55408U 23014T   24229.97545908  .00002956  00000-0  25529-3 0  9996,2 55408  70.0013  61.0744 0003235 280.7125  79.3669 14.98354430 85773,6950.117,96.105,574.231,569.734,0.0
55408.0,STARLINK-5092,PAYLOAD,2024-08-17 21:50:32,14.98337274,0.0003519,69.9991,58.7125,294.0322,66.0469,-0.00011132,-1.421e-05,0.0,0 STARLINK-5092,1 55408U 23014T   24230.91009979 -.00001421  00000-0 -11132-3 0  9998,2 55408  69.9991  58.7125 0003519 294.0322  66.0469 14.98337274 86851,6950.17,96.107,574.481,569.59,0.0
55408.0,STARLINK-5092,PAYLOAD,2024-08-18 21:52:33,14.98334825,0.0003052,70.0001,56.1896,276.2882,83.7929,9.5306e-05,1.044e-05,0.0,0 STARLINK-5092,1 55408U 23014T   24231.91149761  .00001044  00000-0  95306-4 0  9998,2 55408  70.0001  56.1896 0003052 276.2882  83.7929 14.98334825 87002,6950.178,96.107,574.164,569.922,0.0
55408.0,STARLINK-5092,PAYLOAD,2024-08-19 12:17:46,14.98329019,0.0003083,70.0001,54.6774,273.6215,86.4592,6.0297e-05,6.26e-06,0.0,0 STARLINK-5092,1 55408U 23014T   24232.51234087  .00000626  00000-0  60297-4 0  9997,2 55408  70.0001  54.6774 0003083 273.6215  86.4592 14.98329019 86155,6950.196,96.107,574.204,569.918,0.0
55408.0,STARLINK-5092,PAYLOAD,2024-08-20 12:19:46,14.98334951,0.0003222,69.9999,52.152,272.2014,87.8776,7.8768e-05,8.47e-06,0.0,0 STARLINK-5092,1 55408U 23014T   24233.51373667  .00000847  00000-0  78768-4 0  9993,2 55408  69.9999  52.1520 0003222 272.2014  87.8776 14.98334951 86304,6950.178,96.107,574.282,569.803,0.0
55408.0,STARLINK-5092,PAYLOAD,2024-08-20 13:55:54,14.98334123,0.000325,69.9998,51.9837,271.9912,88.0875,6.4597e-05,6.78e-06,0.0,0 STARLINK-5092,1 55408U 23014T   24233.58049721  .00000678  00000-0  64597-4 0  9998,2 55408  69.9998  51.9837 0003250 271.9912  88.0875 14.98334123 87254,6950.18,96.107,574.304,569.786,0.0
55408.0,STARLINK-5092,PAYLOAD,2024-08-21 12:21:48,14.98328953,0.0003231,69.9998,49.6272,272.2705,87.8084,9.151e-05,9.99e-06,0.0,0 STARLINK-5092,1 55408U 23014T   24234.51513921  .00000999  00000-0  91510-4 0  9991,2 55408  69.9998  49.6272 0003231 272.2705  87.8084 14.98328953 86458,6950.196,96.107,574.307,569.816,0.0
55408.0,STARLINK-5092,PAYLOAD,2024-08-21 13:57:56,14.98329173,0.0003233,69.9998,49.4589,272.3396,87.7392,9.2146e-05,1.007e-05,0.0,0 STARLINK-5092,1 55408U 23014T   24234.58189914  .00001007  00000-0  92146-4 0  9996,2 55408  69.9998  49.4589 0003233 272.3396  87.7392 14.98329173 87408,6950.195,96.107,574.307,569.813,0.0
55408.0,STARLINK-5092,PAYLOAD,2024-08-21 21:58:36,14.98332291,0.0003221,69.9997,48.6169,271.7579,88.3211,0.00011428,1.271e-05,0.0,0 STARLINK-5092,1 55408U 23014T   24234.91569672  .00001271  00000-0  11428-3 0  9992,2 55408  69.9997  48.6169 0003221 271.7579  88.3211 14.98332291 87452,6950.186,96.107,574.289,569.812,0.0
